      2.10          N: GNSS NAV DATA                        RINEX VERSION / TYPE
fic2rin                                 02/21/2024 00:17:36 PGM / RUN BY / DATE
                                                            END OF HEADER
3  24  2 20  1 59 44.0  .204162206501D-03  .238742359215D-10  .000000000000D+00
     .190000000000D+02 -.864062500000D+02  .404445418204D-08  .202531560550D+01
    -.465475022793D-05  .511806493159D-02  .424869358540D-05  .515377754402D+04
     .179984000000D+06 -.707805156708D-07 -.145795312695D+01 -.109896063805D-06
     .982685553232D+00  .307468750000D+03  .106529006961D+01 -.790961518151D-08
    -.144291724615D-09  .100000000000D+01  .230200000000D+04  .000000000000D+00
     .240000000000D+01  .000000000000D+00  .186264514923D-08  .190000000000D+02
     .172800000000D+06  .400000000000D+01
8  24  2 20  1 59 44.0 -.167877413332D-03 -.181898940355D-11  .000000000000D+00
     .580000000000D+02  .646250000000D+02  .443089885044D-08 -.104522116691D+01
     .333599746227D-05  .936479191296D-02  .841543078423D-05  .515359486008D+04
     .179984000000D+06  .176951289177D-06  .269642470274D+01 -.113621354103D-06
     .954810270972D+00  .210781250000D+03  .323690661164D+00 -.793890211571D-08
    -.118219210019D-09  .100000000000D+01  .230200000000D+04  .000000000000D+00
     .240000000000D+01  .000000000000D+00  .512227416039D-08  .580000000000D+02
     .172800000000D+06  .400000000000D+01
2  24  2 20  2  0  0.0 -.482741743326D-03  .591171556152D-11  .000000000000D+00
     .890000000000D+02  .618125000000D+02  .453661753976D-08 -.720960738657D+00
     .318698585033D-05  .162027543411D-01  .411272048950D-05  .515371104050D+04
     .180000000000D+06 -.203028321266D-06 -.259124604524D+01 -.931322574615D-08
     .967705465205D+00  .309625000000D+03 -.123733609535D+01 -.842642242289D-08
     .303226916332D-09  .100000000000D+01  .230200000000D+04  .000000000000D+00
     .240000000000D+01  .000000000000D+00 -.176951289177D-07  .890000000000D+02
     .172800000000D+06  .400000000000D+01
7  24  2 20  2  0  0.0 -.660722143948D-04 -.898126018001D-11  .000000000000D+00
     .180000000000D+02  .120000000000D+02  .480341436720D-08  .240742882472D+01
     .398606061935D-06  .179861447541D-01  .721029937267D-05  .515366104698D+04
     .180000000000D+06  .353902578354D-07  .634620192833D+00 -.311061739922D-06
     .950429236553D+00  .233562500000D+03 -.214933725936D+01 -.778639576321D-08
     .308941440080D-09  .100000000000D+01  .230200000000D+04  .000000000000D+00
     .240000000000D+01  .000000000000D+00 -.111758708954D-07  .180000000000D+02
     .172800000000D+06  .400000000000D+01
6  24  2 20  2  0  0.0  .400219578296D-03 -.151203494170D-10  .000000000000D+00
     .240000000000D+02  .577500000000D+02  .402623913759D-08 -.298703474263D+01
     .311434268951D-05  .315411493648D-02  .287219882011D-05  .515356956100D+04
     .180000000000D+06 -.465661287308D-07 -.249512464419D+01  .465661287308D-07
     .989826603508D+00  .340968750000D+03 -.765434669804D+00 -.797354641593D-08
     .185364864048D-09  .100000000000D+01  .230200000000D+04  .000000000000D+00
     .240000000000D+01  .000000000000D+00  .372529029846D-08  .240000000000D+02
     .172800000000D+06  .400000000000D+01
5  24  2 20  2  0  0.0 -.162457581609D-03 -.136424205266D-11  .000000000000D+00
     .890000000000D+02 -.990312500000D+02  .444661379074D-08 -.699827704964D+00
    -.503100454807D-05  .567256414797D-02  .330246984959D-05  .515356543159D+04
     .180000000000D+06 -.614672899246D-07 -.150803586553D+01  .782310962677D-07
     .969664966438D+00  .318781250000D+03  .123003423234D+01 -.828320217148D-08
    -.193222334200D-09  .100000000000D+01  .230200000000D+04  .000000000000D+00
     .240000000000D+01  .000000000000D+00 -.111758708954D-07  .890000000000D+02
     .172800000000D+06  .400000000000D+01
4  24  2 20  2  0  0.0  .295973848552D-03  .932232069317D-11  .000000000000D+00
     .225000000000D+03 -.621250000000D+02  .414160108574D-08 -.130177536337D+01
    -.336766242981D-05  .283504545223D-02  .100079923868D-04  .515358484459D+04
     .180000000000D+06 -.391155481339D-07 -.378376317875D+00 -.128522515297D-06
     .964682034856D+00  .188218750000D+03 -.297447137332D+01 -.767424823467D-08
     .196793911542D-09  .100000000000D+01  .230200000000D+04  .000000000000D+00
     .240000000000D+01  .000000000000D+00 -.465661287308D-08  .481000000000D+03
     .172800000000D+06  .400000000000D+01
29 24  2 20 20  0  0.0 -.606567598879D-03  .795807864051D-12  .000000000000D+00
     .600000000000D+02  .711875000000D+02  .409017037201D-08  .215526603770D+01
     .384263694286D-05  .262903142720D-02  .931508839130D-05  .515364399719D+04
     .244800000000D+06  .726431608200D-07  .280382751067D+01  .372529029846D-08
     .972976094257D+00  .206031250000D+03  .249937374973D+01 -.771032116583D-08
    -.255010622216D-09  .100000000000D+01  .230200000000D+04  .000000000000D+00
     .240000000000D+01  .000000000000D+00 -.102445483208D-07  .600000000000D+02
     .237600000000D+06  .400000000000D+01
16 24  2 20 20  0  0.0 -.358290970325D-03  .841282599140D-11  .000000000000D+00
     .450000000000D+02  .312500000000D-01  .469483841601D-08  .311005179894D+01
    -.178813934326D-06  .140093298396D-01  .687129795551D-05  .515373014832D+04
     .244800000000D+06 -.186264514923D-07  .176782520438D+01 -.264495611191D-06
     .962248676903D+00  .247750000000D+03  .827446054107D+00 -.776318051049D-08
    -.428946438769D-09  .100000000000D+01  .230200000000D+04  .000000000000D+00
     .240000000000D+01  .000000000000D+00 -.102445483208D-07  .450000000000D+02
     .237600000000D+06  .400000000000D+01
22 24  2 20 20  0  0.0  .279974192381D-04 -.613908923697D-11  .000000000000D+00
     .470000000000D+02 -.634375000000D+01  .469340978507D-08  .268802304279D+01
    -.299885869026D-06  .144944959320D-01  .675581395626D-05  .515371015167D+04
     .244800000000D+06  .203028321266D-06  .177112777851D+01  .856816768646D-07
     .961548977814D+00  .247250000000D+03 -.114187581185D+01 -.777282376931D-08
    -.474305471012D-09  .100000000000D+01  .230200000000D+04  .000000000000D+00
     .240000000000D+01  .000000000000D+00 -.111758708954D-07  .470000000000D+02
     .237600000000D+06  .400000000000D+01
26 24  2 20 20  0  0.0  .188093166798D-03 -.409272615798D-11  .000000000000D+00
     .370000000000D+02 -.143750000000D+01  .552844456762D-08 -.232722961923D+01
    -.325962901115D-06  .882245227695D-02  .593066215515D-05  .515358359528D+04
     .244800000000D+06  .102445483208D-06  .160362653600D+01 -.176951289177D-06
     .931346043672D+00  .249562500000D+03  .533509145403D+00 -.834963351004D-08
    -.218937691062D-09  .100000000000D+01  .230200000000D+04  .000000000000D+00
     .240000000000D+01  .000000000000D+00  .698491930962D-08  .370000000000D+02
     .237600000000D+06  .400000000000D+01
15 24  2 20 20  0  0.0  .129761639982D-03  .397903932026D-11  .000000000000D+00
     .430000000000D+02 -.937500000000D+02  .494734893408D-08  .116713904364D+01
    -.497698783875D-05  .154548264109D-01  .946037471294D-05  .515361541557D+04
     .244800000000D+06 -.260770320892D-06 -.563005699310D+00 -.130385160446D-06
     .934808647881D+00  .189406250000D+03  .129114647208D+01 -.837427739370D-08
     .264296723305D-10  .100000000000D+01  .230200000000D+04  .000000000000D+00
     .240000000000D+01  .000000000000D+00 -.102445483208D-07  .430000000000D+02
     .237600000000D+06  .400000000000D+01
20 24  2 20 20  0  0.0  .386757310480D-03 -.147792889038D-11  .000000000000D+00
     .320000000000D+02 -.484375000000D+02  .479377110838D-08  .668810681781D+00
    -.252015888691D-05  .384520902298D-02  .203214585781D-05  .515372432709D+04
     .244800000000D+06 -.260770320892D-07 -.163579371561D+01  .108033418655D-06
     .952145020022D+00  .337687500000D+03 -.262458080172D+01 -.844213736319D-08
    -.118933525487D-09  .100000000000D+01  .230200000000D+04  .000000000000D+00
     .240000000000D+01  .000000000000D+00 -.838190317154D-08  .320000000000D+02
     .237600000000D+06  .400000000000D+01
17 24  2 20 20  0  0.0  .716349110007D-03 -.125055521494D-11  .000000000000D+00
     .540000000000D+02  .650625000000D+02  .402838208400D-08  .217412162540D+01
     .345148146152D-05  .135314344661D-01  .957027077675D-05  .515367692566D+04
     .244800000000D+06  .188127160072D-06  .278906743089D+01 -.167638063431D-07
     .970587953638D+00  .192812500000D+03 -.133479316402D+01 -.746602527563D-08
    -.347514475373D-09  .100000000000D+01  .230200000000D+04  .000000000000D+00
     .240000000000D+01  .000000000000D+00 -.111758708954D-07  .540000000000D+02
     .237600000000D+06  .400000000000D+01
25 24  2 20 20  0  0.0  .489179044962D-03  .113686837722D-11  .000000000000D+00
     .310000000000D+02  .468750000000D+00  .504985320380D-08 -.151934219175D+01
     .165775418282D-06  .118286560755D-01  .605359673500D-05  .515360325813D+04
     .244800000000D+06  .277534127235D-06  .166434740126D+01  .126659870148D-06
     .950575254795D+00  .256218750000D+03  .107755406589D+01 -.808962267954D-08
    -.279297348141D-09  .100000000000D+01  .230200000000D+04  .000000000000D+00
     .240000000000D+01  .000000000000D+00  .558793544769D-08  .310000000000D+02
     .237600000000D+06  .400000000000D+01
24 24  2 20 20  0  0.0 -.434917863458D-03 -.602540239925D-11  .000000000000D+00
     .760000000000D+02  .189687500000D+02  .535986611708D-08  .337437283960D+00
     .949949026108D-06  .150993722491D-01  .771507620811D-05  .515372305107D+04
     .244800000000D+06 -.147148966789D-06  .538744553239D+00  .189989805222D-06
     .934183683426D+00  .220156250000D+03  .967809658620D+00 -.853535553182D-08
     .391444876679D-09  .100000000000D+01  .230200000000D+04  .000000000000D+00
     .240000000000D+01  .000000000000D+00  .232830643654D-08  .760000000000D+02
     .237600000000D+06  .400000000000D+01
